{
  "type": "FeatureCollection",
  "features": [
    {
      "type": "Feature",
      "properties": {
        "norad_id": 41948,
        "name": "CARTOSAT-2D",
        "group": "resource",
        "lat": -37.652795373152934,
        "lon": -127.28050152851696,
        "alt_km": 515.6600794530541,
        "timestamp": "2025-12-27T05:29:38.851670+00:00",
        "meta_object_name": "CARTOSAT-2D",
        "meta_object_id": "2017-008A",
        "meta_epoch": "2025-12-26T23:47:45.295008",
        "meta_mean_motion": 15.1920471,
        "meta_eccentricity": 0.00054543,
        "meta_inclination": 97.4367,
        "meta_ra_of_asc_node": 58.27,
        "meta_arg_of_pericenter": 114.0009,
        "meta_mean_anomaly": 246.1797,
        "meta_ephemeris_type": 0,
        "meta_classification_type": "U",
        "meta_norad_cat_id": 41948,
        "meta_element_set_no": 999,
        "meta_rev_at_epoch": 49143,
        "meta_bstar": 0.00020230287,
        "meta_mean_motion_dot": 4.191e-05,
        "meta_mean_motion_ddot": 0,
        "tle_line1": "1 41948U 17008A   25360.99149647  .00004191  00000+0  20230-3 0  9991",
        "tle_line2": "2 41948  97.4367  58.2700 0005454 114.0009 246.1797 15.19204710491436"
      },
      "geometry": {
        "type": "Point",
        "coordinates": [
          -127.28050152851696,
          -37.652795373152934
        ]
      }
    },
    {
      "type": "Feature",
      "properties": {
        "norad_id": 42063,
        "name": "SENTINEL-2B",
        "group": "resource",
        "lat": -72.27821413736412,
        "lon": -134.68476689104267,
        "alt_km": 797.1013560050333,
        "timestamp": "2025-12-27T05:29:38.851680+00:00",
        "meta_object_name": "SENTINEL-2B",
        "meta_object_id": "2017-013A",
        "meta_epoch": "2025-12-26T23:16:25.617216",
        "meta_mean_motion": 14.30816276,
        "meta_eccentricity": 0.00011785,
        "meta_inclination": 98.5694,
        "meta_ra_of_asc_node": 73.2147,
        "meta_arg_of_pericenter": 89.5005,
        "meta_mean_anomaly": 270.6313,
        "meta_ephemeris_type": 0,
        "meta_classification_type": "U",
        "meta_norad_cat_id": 42063,
        "meta_element_set_no": 999,
        "meta_rev_at_epoch": 46001,
        "meta_bstar": 6.790273e-05,
        "meta_mean_motion_dot": 1.34e-06,
        "meta_mean_motion_ddot": 0,
        "tle_line1": "1 42063U 17013A   25360.96974094  .00000134  00000+0  67903-4 0  9997",
        "tle_line2": "2 42063  98.5694  73.2147 0001178  89.5005 270.6313 14.30816276460017"
      },
      "geometry": {
        "type": "Point",
        "coordinates": [
          -134.68476689104267,
          -72.27821413736412
        ]
      }
    },
    {
      "type": "Feature",
      "properties": {
        "norad_id": 42767,
        "name": "CARTOSAT-2E",
        "group": "resource",
        "lat": 52.138984142197735,
        "lon": -111.68020493656417,
        "alt_km": 501.94614246363653,
        "timestamp": "2025-12-27T05:29:38.851690+00:00",
        "meta_object_name": "CARTOSAT-2E",
        "meta_object_id": "2017-036C",
        "meta_epoch": "2025-12-26T22:36:47.382048",
        "meta_mean_motion": 15.19211729,
        "meta_eccentricity": 0.00026911,
        "meta_inclination": 97.4536,
        "meta_ra_of_asc_node": 58.3415,
        "meta_arg_of_pericenter": 166.2171,
        "meta_mean_anomaly": 193.9137,
        "meta_ephemeris_type": 0,
        "meta_classification_type": "U",
        "meta_norad_cat_id": 42767,
        "meta_element_set_no": 999,
        "meta_rev_at_epoch": 47199,
        "meta_bstar": 0.00020270436,
        "meta_mean_motion_dot": 4.199e-05,
        "meta_mean_motion_ddot": 0,
        "tle_line1": "1 42767U 17036C   25360.94221507  .00004199  00000+0  20270-3 0  9995",
        "tle_line2": "2 42767  97.4536  58.3415 0002691 166.2171 193.9137 15.19211729471991"
      },
      "geometry": {
        "type": "Point",
        "coordinates": [
          -111.68020493656417,
          52.138984142197735
        ]
      }
    },
    {
      "type": "Feature",
      "properties": {
        "norad_id": 42920,
        "name": "FORMOSAT-5",
        "group": "resource",
        "lat": -38.0062097992445,
        "lon": -111.24975634709138,
        "alt_km": 723.708606680565,
        "timestamp": "2025-12-27T05:29:38.851701+00:00",
        "meta_object_name": "FORMOSAT-5",
        "meta_object_id": "2017-049A",
        "meta_epoch": "2025-12-26T21:52:07.442400",
        "meta_mean_motion": 14.50768884,
        "meta_eccentricity": 0.00098621,
        "meta_inclination": 98.2437,
        "meta_ra_of_asc_node": 74.9442,
        "meta_arg_of_pericenter": 252.9801,
        "meta_mean_anomaly": 107.0314,
        "meta_ephemeris_type": 0,
        "meta_classification_type": "U",
        "meta_norad_cat_id": 42920,
        "meta_element_set_no": 999,
        "meta_rev_at_epoch": 44169,
        "meta_bstar": 8.2406101e-05,
        "meta_mean_motion_dot": 2.81e-06,
        "meta_mean_motion_ddot": 0,
        "tle_line1": "1 42920U 17049A   25360.91119725  .00000281  00000+0  82406-4 0  9993",
        "tle_line2": "2 42920  98.2437  74.9442 0009862 252.9801 107.0314 14.50768884441695"
      },
      "geometry": {
        "type": "Point",
        "coordinates": [
          -111.24975634709138,
          -38.0062097992445
        ]
      }
    },
    {
      "type": "Feature",
      "properties": {
        "norad_id": 42969,
        "name": "SENTINEL-5P",
        "group": "resource",
        "lat": 62.399930121663346,
        "lon": -77.50965864348014,
        "alt_km": 820.1729967349638,
        "timestamp": "2025-12-27T05:29:38.851711+00:00",
        "meta_object_name": "SENTINEL-5P",
        "meta_object_id": "2017-064A",
        "meta_epoch": "2025-12-26T19:02:42.148896",
        "meta_mean_motion": 14.19520998,
        "meta_eccentricity": 0.0001058,
        "meta_inclination": 98.7802,
        "meta_ra_of_asc_node": 299.2542,
        "meta_arg_of_pericenter": 91.0768,
        "meta_mean_anomaly": 269.0529,
        "meta_ephemeris_type": 0,
        "meta_classification_type": "U",
        "meta_norad_cat_id": 42969,
        "meta_element_set_no": 999,
        "meta_rev_at_epoch": 42510,
        "meta_bstar": 7.0164313e-05,
        "meta_mean_motion_dot": 1.04e-06,
        "meta_mean_motion_ddot": 0,
        "tle_line1": "1 42969U 17064A   25360.79354339  .00000104  00000+0  70164-4 0  9993",
        "tle_line2": "2 42969  98.7802 299.2542 0001058  91.0768 269.0529 14.19520998425107"
      },
      "geometry": {
        "type": "Point",
        "coordinates": [
          -77.50965864348014,
          62.399930121663346
        ]
      }
    },
    {
      "type": "Feature",
      "properties": {
        "norad_id": 42987,
        "name": "SKYSAT-C11",
        "group": "resource",
        "lat": 14.673246519632002,
        "lon": 137.13092631334013,
        "alt_km": 423.2032461896724,
        "timestamp": "2025-12-27T05:29:38.851722+00:00",
        "meta_object_name": "SKYSAT-C11",
        "meta_object_id": "2017-068A",
        "meta_epoch": "2025-12-26T21:40:25.481280",
        "meta_mean_motion": 15.4806734,
        "meta_eccentricity": 0.00011861,
        "meta_inclination": 97.415,
        "meta_ra_of_asc_node": 138.751,
        "meta_arg_of_pericenter": 95.0649,
        "meta_mean_anomaly": 265.0736,
        "meta_ephemeris_type": 0,
        "meta_classification_type": "U",
        "meta_norad_cat_id": 42987,
        "meta_element_set_no": 999,
        "meta_rev_at_epoch": 45650,
        "meta_bstar": 0.00048181975,
        "meta_mean_motion_dot": 0.00025191,
        "meta_mean_motion_ddot": 0,
        "tle_line1": "1 42987U 17068A   25360.90307270  .00025191  00000+0  48182-3 0  9999",
        "tle_line2": "2 42987  97.4150 138.7510 0001186  95.0649 265.0736 15.48067340456509"
      },
      "geometry": {
        "type": "Point",
        "coordinates": [
          137.13092631334013,
          14.673246519632002
        ]
      }
    },
    {
      "type": "Feature",
      "properties": {
        "norad_id": 42988,
        "name": "SKYSAT-C10",
        "group": "resource",
        "lat": 1.0340770097476681,
        "lon": 131.98766537154853,
        "alt_km": 472.373724750526,
        "timestamp": "2025-12-27T05:29:38.851733+00:00",
        "meta_object_name": "SKYSAT-C10",
        "meta_object_id": "2017-068B",
        "meta_epoch": "2025-12-26T07:32:29.638752",
        "meta_mean_motion": 15.31865933,
        "meta_eccentricity": 0.0003533,
        "meta_inclination": 97.4259,
        "meta_ra_of_asc_node": 131.2058,
        "meta_arg_of_pericenter": 75.9386,
        "meta_mean_anomaly": 284.2248,
        "meta_ephemeris_type": 0,
        "meta_classification_type": "U",
        "meta_norad_cat_id": 42988,
        "meta_element_set_no": 999,
        "meta_rev_at_epoch": 45587,
        "meta_bstar": 0.00043148,
        "meta_mean_motion_dot": 0.00013208,
        "meta_mean_motion_ddot": 0,
        "tle_line1": "1 42988U 17068B   25360.31423193  .00013208  00000+0  43148-3 0  9991",
        "tle_line2": "2 42988  97.4259 131.2058 0003533  75.9386 284.2248 15.31865933455874"
      },
      "geometry": {
        "type": "Point",
        "coordinates": [
          131.98766537154853,
          1.0340770097476681
        ]
      }
    }
  ]
}